COSMOS 2251 DEB         
1 34861U 93036ACF 17345.68559576  .00000496  00000-0  14686-3 0  9991
2 34861  74.0317 195.5374 0028242 260.2219 161.9500 14.45831936455516
